{
  "norad_id": 52284,
  "name": "STARLINK-3561",
  "history": [
    {
      "epoch": "2026-03-28T18:52:17.006880Z",
      "apogee_km": 540.8255159695645,
      "perigee_km": 538.6521960906339,
      "latitude_deg": -1.674698607598409e-05,
      "longitude_deg": -95.88113081369092,
      "height_km": 540.5245914805461,
      "semi_major_axis_km": 6917.875856030099,
      "eccentricity": 0.00015708,
      "inclination_deg": 53.2195,
      "raan_deg": 13.3915,
      "arg_perigee_deg": 84.1946,
      "mean_anomaly_deg": 275.9225,
      "mean_motion_rev_day": 15.08841483
    },
    {
      "epoch": "2026-03-29T01:13:49.467072Z",
      "apogee_km": 540.7631402321131,
      "perigee_km": 538.7085319997859,
      "latitude_deg": -2.2520367826187238e-05,
      "longitude_deg": 167.28215849940653,
      "height_km": 540.6553752055034,
      "semi_major_axis_km": 6917.872836115949,
      "eccentricity": 0.0001485,
      "inclination_deg": 53.2188,
      "raan_deg": 12.2012,
      "arg_perigee_deg": 91.3305,
      "mean_anomaly_deg": 268.7857,
      "mean_motion_rev_day": 15.08842471
    },
    {
      "epoch": "2026-03-30T01:04:36.505344Z",
      "apogee_km": 540.924063009129,
      "perigee_km": 538.5376753089831,
      "latitude_deg": 4.2329142312958666e-05,
      "longitude_deg": 164.14717761638207,
      "height_km": 540.8118382573281,
      "semi_major_axis_km": 6917.867869159056,
      "eccentricity": 0.00017248,
      "inclination_deg": 53.2209,
      "raan_deg": 7.7415,
      "arg_perigee_deg": 98.9381,
      "mean_anomaly_deg": 261.1807,
      "mean_motion_rev_day": 15.08844096
    },
    {
      "epoch": "2026-03-30T21:44:37.543776Z",
      "apogee_km": 540.820125615116,
      "perigee_km": 538.6974384733539,
      "latitude_deg": 3.779939752141332e-05,
      "longitude_deg": -150.57331323968202,
      "height_km": 541.1163709629343,
      "semi_major_axis_km": 6917.895782044235,
      "eccentricity": 0.00015342,
      "inclination_deg": 53.2174,
      "raan_deg": 3.8741,
      "arg_perigee_deg": 115.7999,
      "mean_anomaly_deg": 244.3152,
      "mean_motion_rev_day": 15.08834964
    },
    {
      "epoch": "2026-03-31T00:55:24.107808Z",
      "apogee_km": 540.6655307214314,
      "perigee_km": 538.872824514564,
      "latitude_deg": -2.8264946573909362e-05,
      "longitude_deg": 161.01033942488633,
      "height_km": 540.7190078223508,
      "semi_major_axis_km": 6917.906177617998,
      "eccentricity": 0.00012957,
      "inclination_deg": 53.2176,
      "raan_deg": 3.2824,
      "arg_perigee_deg": 93.4545,
      "mean_anomaly_deg": 266.6595,
      "mean_motion_rev_day": 15.08831563
    },
    {
      "epoch": "2026-04-01T20:00:01.999008Z",
      "apogee_km": 540.6468480995281,
      "perigee_km": 538.7292269991185,
      "latitude_deg": 27.331348508662966,
      "longitude_deg": -112.3764400759373,
      "height_km": 540.4832942757795,
      "semi_major_axis_km": 6917.825037549323,
      "eccentricity": 0.0001386,
      "inclination_deg": 53.2178,
      "raan_deg": 355.2242,
      "arg_perigee_deg": 93.2978,
      "mean_anomaly_deg": 301.5857,
      "mean_motion_rev_day": 15.08858109
    },
    {
      "epoch": "2026-04-02T10:09:16.914816Z",
      "apogee_km": 540.6750702887675,
      "perigee_km": 538.8048914257624,
      "latitude_deg": 3.843548999315308e-08,
      "longitude_deg": 9.483726725353632,
      "height_km": 540.6606305462212,
      "semi_major_axis_km": 6917.876980857264,
      "eccentricity": 0.00013517,
      "inclination_deg": 53.2191,
      "raan_deg": 352.5762,
      "arg_perigee_deg": 91.5167,
      "mean_anomaly_deg": 268.598,
      "mean_motion_rev_day": 15.08841115
    },
    {
      "epoch": "2026-04-02T22:52:22.069344Z",
      "apogee_km": 540.7239116142027,
      "perigee_km": 538.752455544387,
      "latitude_deg": 5.641553418136267e-05,
      "longitude_deg": 175.81157806537124,
      "height_km": 540.6757485887697,
      "semi_major_axis_km": 6917.875183579295,
      "eccentricity": 0.00014249,
      "inclination_deg": 53.2191,
      "raan_deg": 350.1978,
      "arg_perigee_deg": 92.4289,
      "mean_anomaly_deg": 267.6867,
      "mean_motion_rev_day": 15.08841703
    },
    {
      "epoch": "2026-04-03T21:07:46.680096Z",
      "apogee_km": 540.6860899380617,
      "perigee_km": 538.8210266435453,
      "latitude_deg": -4.683110054481406e-06,
      "longitude_deg": -163.11806798144656,
      "height_km": 540.7303980191448,
      "semi_major_axis_km": 6917.890558290803,
      "eccentricity": 0.0001348,
      "inclination_deg": 53.219,
      "raan_deg": 346.0348,
      "arg_perigee_deg": 94.9794,
      "mean_anomaly_deg": 265.1352,
      "mean_motion_rev_day": 15.08836673
    },
    {
      "epoch": "2026-04-04T06:00:02.000160Z",
      "apogee_km": 540.6834279229488,
      "perigee_km": 538.881171586976,
      "latitude_deg": -22.983155030112712,
      "longitude_deg": -99.82141253133038,
      "height_km": 546.9699979725401,
      "semi_major_axis_km": 6917.919299754963,
      "eccentricity": 0.00013026,
      "inclination_deg": 53.216,
      "raan_deg": 344.3767,
      "arg_perigee_deg": 74.9342,
      "mean_anomaly_deg": 133.9835,
      "mean_motion_rev_day": 15.0882727
    },
    {
      "epoch": "2026-04-05T09:41:38.490144Z",
      "apogee_km": 540.4682165150834,
      "perigee_km": 538.9926353931269,
      "latitude_deg": 9.81302443702329e-06,
      "longitude_deg": 0.07251970591409344,
      "height_km": 540.77536605625,
      "semi_major_axis_km": 6917.867425954105,
      "eccentricity": 0.00010665,
      "inclination_deg": 53.2178,
      "raan_deg": 339.1929,
      "arg_perigee_deg": 101.6325,
      "mean_anomaly_deg": 258.4787,
      "mean_motion_rev_day": 15.08844241
    },
    {
      "epoch": "2026-04-05T20:49:20.526816Z",
      "apogee_km": 540.5829510316325,
      "perigee_km": 538.9138036477871,
      "latitude_deg": -5.4998128241000756e-05,
      "longitude_deg": -169.38860694074114,
      "height_km": 540.481547889495,
      "semi_major_axis_km": 6917.8853773397095,
      "eccentricity": 0.00012064,
      "inclination_deg": 53.218,
      "raan_deg": 337.114,
      "arg_perigee_deg": 78.7475,
      "mean_anomaly_deg": 281.3652,
      "mean_motion_rev_day": 15.08838368
    },
    {
      "epoch": "2026-04-06T22:15:31.081248Z",
      "apogee_km": 540.7317185103784,
      "perigee_km": 538.7642720177264,
      "latitude_deg": -7.213468546713627e-06,
      "longitude_deg": 163.2636189600961,
      "height_km": 540.6313320446382,
      "semi_major_axis_km": 6917.884995264052,
      "eccentricity": 0.0001422,
      "inclination_deg": 53.2194,
      "raan_deg": 332.3548,
      "arg_perigee_deg": 89.2721,
      "mean_anomaly_deg": 270.8434,
      "mean_motion_rev_day": 15.08838493
    },
    {
      "epoch": "2026-04-07T20:30:54.784800Z",
      "apogee_km": 540.8075591909001,
      "perigee_km": 538.6630187813143,
      "latitude_deg": -3.953285646098798e-05,
      "longitude_deg": -175.66281799280395,
      "height_km": 540.6944005196201,
      "semi_major_axis_km": 6917.872288986107,
      "eccentricity": 0.000155,
      "inclination_deg": 53.2201,
      "raan_deg": 328.1912,
      "arg_perigee_deg": 93.3883,
      "mean_anomaly_deg": 266.7286,
      "mean_motion_rev_day": 15.0884265
    },
    {
      "epoch": "2026-04-08T07:38:36.707424Z",
      "apogee_km": 540.8143063984826,
      "perigee_km": 538.6627087581155,
      "latitude_deg": -1.1529076185283697e-05,
      "longitude_deg": 14.874500289749625,
      "height_km": 540.6902124530845,
      "semi_major_axis_km": 6917.875507578299,
      "eccentricity": 0.00015551,
      "inclination_deg": 53.2202,
      "raan_deg": 326.1102,
      "arg_perigee_deg": 92.9822,
      "mean_anomaly_deg": 267.1348,
      "mean_motion_rev_day": 15.08841597
    }
  ]
}